[{"OBJECT_NAME":"IRIDIUM 135","OBJECT_ID":"2017-083A","EPOCH":"2026-03-09T20:54:11.059776","MEAN_MOTION":14.34219982,"ECCENTRICITY":0.00022174,"INCLINATION":86.4022,"RA_OF_ASC_NODE":3.5181,"ARG_OF_PERICENTER":86.9121,"MEAN_ANOMALY":273.2329,"EPHEMERIS_TYPE":0,"CLASSIFICATION_TYPE":"U","NORAD_CAT_ID":43070,"ELEMENT_SET_NO":999,"REV_AT_EPOCH":42991,"BSTAR":4.5894748e-5,"MEAN_MOTION_DOT":1.48e-6,"MEAN_MOTION_DDOT":0},{"OBJECT_NAME":"COSMOS 1741","OBJECT_ID":"1986-030A","EPOCH":"2026-03-09T20:41:18.108960","MEAN_MOTION":14.33902623,"ECCENTRICITY":0.00187579,"INCLINATION":74.0223,"RA_OF_ASC_NODE":229.5525,"ARG_OF_PERICENTER":179.1386,"MEAN_ANOMALY":180.9802,"EPHEMERIS_TYPE":0,"CLASSIFICATION_TYPE":"U","NORAD_CAT_ID":16681,"ELEMENT_SET_NO":999,"REV_AT_EPOCH":8497,"BSTAR":9.7906822e-5,"MEAN_MOTION_DOT":2.47e-6,"MEAN_MOTION_DDOT":0}]
